{
  "type": "FeatureCollection",
  "features": [
    {
      "type": "Feature",
      "properties": {
        "norad_id": 58701,
        "name": "TIANMU-1 16",
        "group": "weather",
        "lat": 50.822841686221565,
        "lon": 2.454155793909432,
        "alt_km": 490.01951070923224,
        "timestamp": "2025-12-18T08:58:43.035411+00:00",
        "meta_object_name": "TIANMU-1 16",
        "meta_object_id": "2024-004B",
        "meta_epoch": "2025-12-17T22:57:53.146368",
        "meta_mean_motion": 15.24501895,
        "meta_eccentricity": 0.00043411,
        "meta_inclination": 97.4561,
        "meta_ra_of_asc_node": 172.7909,
        "meta_arg_of_pericenter": 272.8547,
        "meta_mean_anomaly": 87.2193,
        "meta_ephemeris_type": 0,
        "meta_classification_type": "U",
        "meta_norad_cat_id": 58701,
        "meta_element_set_no": 999,
        "meta_rev_at_epoch": 10814,
        "meta_bstar": 0.00021973357,
        "meta_mean_motion_dot": 5.331e-05,
        "meta_mean_motion_ddot": 0,
        "tle_line1": "1 58701U 24004B   25351.95686512  .00005331  00000+0  21973-3 0  9995",
        "tle_line2": "2 58701  97.4561 172.7909 0004341 272.8547  87.2193 15.24501895108141"
      },
      "geometry": {
        "type": "Point",
        "coordinates": [
          2.454155793909432,
          50.822841686221565
        ]
      }
    },
    {
      "type": "Feature",
      "properties": {
        "norad_id": 58702,
        "name": "TIANMU-1 17",
        "group": "weather",
        "lat": -33.66428898598467,
        "lon": -11.387100635676159,
        "alt_km": 497.1864929485573,
        "timestamp": "2025-12-18T08:58:43.035427+00:00",
        "meta_object_name": "TIANMU-1 17",
        "meta_object_id": "2024-004C",
        "meta_epoch": "2025-12-17T22:35:29.306688",
        "meta_mean_motion": 15.24545277,
        "meta_eccentricity": 0.00035079,
        "meta_inclination": 97.4595,
        "meta_ra_of_asc_node": 173.1883,
        "meta_arg_of_pericenter": 275.2829,
        "meta_mean_anomaly": 84.8008,
        "meta_ephemeris_type": 0,
        "meta_classification_type": "U",
        "meta_norad_cat_id": 58702,
        "meta_element_set_no": 999,
        "meta_rev_at_epoch": 10813,
        "meta_bstar": 0.00022523148,
        "meta_mean_motion_dot": 5.473e-05,
        "meta_mean_motion_ddot": 0,
        "tle_line1": "1 58702U 24004C   25351.94131142  .00005473  00000+0  22523-3 0  9998",
        "tle_line2": "2 58702  97.4595 173.1883 0003507 275.2829  84.8008 15.24545277108137"
      },
      "geometry": {
        "type": "Point",
        "coordinates": [
          -11.387100635676159,
          -33.66428898598467
        ]
      }
    },
    {
      "type": "Feature",
      "properties": {
        "norad_id": 58703,
        "name": "TIANMU-1 18",
        "group": "weather",
        "lat": -54.21732557724853,
        "lon": -175.70803333182786,
        "alt_km": 497.58780135193865,
        "timestamp": "2025-12-18T08:58:43.035454+00:00",
        "meta_object_name": "TIANMU-1 18",
        "meta_object_id": "2024-004D",
        "meta_epoch": "2025-12-17T23:46:02.769312",
        "meta_mean_motion": 15.24531964,
        "meta_eccentricity": 0.00028662,
        "meta_inclination": 97.4612,
        "meta_ra_of_asc_node": 173.4335,
        "meta_arg_of_pericenter": 273.4231,
        "meta_mean_anomaly": 86.6679,
        "meta_ephemeris_type": 0,
        "meta_classification_type": "U",
        "meta_norad_cat_id": 58703,
        "meta_element_set_no": 999,
        "meta_rev_at_epoch": 10814,
        "meta_bstar": 0.00023802777,
        "meta_mean_motion_dot": 5.785e-05,
        "meta_mean_motion_ddot": 0,
        "tle_line1": "1 58703U 24004D   25351.99030983  .00005785  00000+0  23803-3 0  9993",
        "tle_line2": "2 58703  97.4612 173.4335 0002866 273.4231  86.6679 15.24531964108140"
      },
      "geometry": {
        "type": "Point",
        "coordinates": [
          -175.70803333182786,
          -54.21732557724853
        ]
      }
    },
    {
      "type": "Feature",
      "properties": {
        "norad_id": 58990,
        "name": "INSAT-3DS",
        "group": "weather",
        "lat": -0.0301591042478564,
        "lon": -55.98895853470319,
        "alt_km": 35781.992948760024,
        "timestamp": "2025-12-18T08:58:43.035472+00:00",
        "meta_object_name": "INSAT-3DS",
        "meta_object_id": "2024-033A",
        "meta_epoch": "2025-12-17T20:33:53.963712",
        "meta_mean_motion": 1.00272499,
        "meta_eccentricity": 0.00011044,
        "meta_inclination": 0.0493,
        "meta_ra_of_asc_node": 112.5941,
        "meta_arg_of_pericenter": 158.3022,
        "meta_mean_anomaly": 206.4038,
        "meta_ephemeris_type": 0,
        "meta_classification_type": "U",
        "meta_norad_cat_id": 58990,
        "meta_element_set_no": 999,
        "meta_rev_at_epoch": 4525,
        "meta_bstar": 0,
        "meta_mean_motion_dot": -1.31e-06,
        "meta_mean_motion_ddot": 0,
        "tle_line1": "1 58990U 24033A   25351.85687458 -.00000131  00000+0  00000+0 0  9994",
        "tle_line2": "2 58990   0.0493 112.5941 0001104 158.3022 206.4038  1.00272499 45252"
      },
      "geometry": {
        "type": "Point",
        "coordinates": [
          -55.98895853470319,
          -0.0301591042478564
        ]
      }
    },
    {
      "type": "Feature",
      "properties": {
        "norad_id": 59051,
        "name": "METEOR-M2 4",
        "group": "weather",
        "lat": -32.014506457481005,
        "lon": 123.71578084887724,
        "alt_km": 826.3745402108607,
        "timestamp": "2025-12-18T08:58:43.035505+00:00",
        "meta_object_name": "METEOR-M2 4",
        "meta_object_id": "2024-039A",
        "meta_epoch": "2025-12-17T23:32:30.729408",
        "meta_mean_motion": 14.22402115,
        "meta_eccentricity": 0.00067595,
        "meta_inclination": 98.6773,
        "meta_ra_of_asc_node": 308.8077,
        "meta_arg_of_pericenter": 343.1906,
        "meta_mean_anomaly": 16.9047,
        "meta_ephemeris_type": 0,
        "meta_classification_type": "U",
        "meta_norad_cat_id": 59051,
        "meta_element_set_no": 999,
        "meta_rev_at_epoch": 9350,
        "meta_bstar": 2.5569346e-05,
        "meta_mean_motion_dot": 1.3e-07,
        "meta_mean_motion_ddot": 0,
        "tle_line1": "1 59051U 24039A   25351.98091122  .00000013  00000+0  25569-4 0  9990",
        "tle_line2": "2 59051  98.6773 308.8077 0006759 343.1906  16.9047 14.22402115 93504"
      },
      "geometry": {
        "type": "Point",
        "coordinates": [
          123.71578084887724,
          -32.014506457481005
        ]
      }
    },
    {
      "type": "Feature",
      "properties": {
        "norad_id": 60133,
        "name": "GOES 19",
        "group": "weather",
        "lat": -0.003649546812585656,
        "lon": 146.7175037860183,
        "alt_km": 35790.51762501456,
        "timestamp": "2025-12-18T08:58:43.035534+00:00",
        "meta_object_name": "GOES 19",
        "meta_object_id": "2024-119A",
        "meta_epoch": "2025-12-17T18:06:02.613024",
        "meta_mean_motion": 1.00271808,
        "meta_eccentricity": 0.00010452,
        "meta_inclination": 0.0152,
        "meta_ra_of_asc_node": 164.1921,
        "meta_arg_of_pericenter": 158.7491,
        "meta_mean_anomaly": 320.0095,
        "meta_ephemeris_type": 0,
        "meta_classification_type": "U",
        "meta_norad_cat_id": 60133,
        "meta_element_set_no": 999,
        "meta_rev_at_epoch": 514,
        "meta_bstar": 0,
        "meta_mean_motion_dot": -2.23e-06,
        "meta_mean_motion_ddot": 0,
        "tle_line1": "1 60133U 24119A   25351.75419691 -.00000223  00000+0  00000+0 0  9994",
        "tle_line2": "2 60133   0.0152 164.1921 0001045 158.7491 320.0095  1.00271808  5148"
      },
      "geometry": {
        "type": "Point",
        "coordinates": [
          146.7175037860183,
          -0.003649546812585656
        ]
      }
    },
    {
      "type": "Feature",
      "properties": {
        "norad_id": 65815,
        "name": "FENGYUN 3H",
        "group": "weather",
        "lat": 40.06662344149188,
        "lon": -75.52164069582523,
        "alt_km": 822.2565389664478,
        "timestamp": "2025-12-18T08:58:43.035555+00:00",
        "meta_object_name": "FENGYUN 3H",
        "meta_object_id": "2025-219A",
        "meta_epoch": "2025-12-17T20:56:58.161696",
        "meta_mean_motion": 14.19906122,
        "meta_eccentricity": 6.852e-05,
        "meta_inclination": 98.659,
        "meta_ra_of_asc_node": 291.3519,
        "meta_arg_of_pericenter": 101.7685,
        "meta_mean_anomaly": 258.3568,
        "meta_ephemeris_type": 0,
        "meta_classification_type": "U",
        "meta_norad_cat_id": 65815,
        "meta_element_set_no": 999,
        "meta_rev_at_epoch": 1165,
        "meta_bstar": 4.9240108e-05,
        "meta_mean_motion_dot": 6.1e-07,
        "meta_mean_motion_ddot": 0,
        "tle_line1": "1 65815U 25219A   25351.87289539  .00000061  00000+0  49240-4 0  9990",
        "tle_line2": "2 65815  98.6590 291.3519 0000685 101.7685 258.3568 14.19906122 11656"
      },
      "geometry": {
        "type": "Point",
        "coordinates": [
          -75.52164069582523,
          40.06662344149188
        ]
      }
    }
  ]
}